CCSDS_OMM_VERS = 2.0
CREATION_DATE  = 
ORIGINATOR     = 

OBJECT_NAME    = STARLINK-36560
OBJECT_ID      = 2026-016AA
CENTER_NAME    = EARTH
REF_FRAME      = TEME
TIME_SYSTEM    = UTC
MEAN_ELEMENT_THEORY = SGP/SGP4

EPOCH          = 2026-02-23T14:00:01.999872
MEAN_MOTION    = 15.75124879
ECCENTRICITY   = .00016921
INCLINATION    = 97.2843
RA_OF_ASC_NODE = 114.4609
ARG_OF_PERICENTER = 87.1277
MEAN_ANOMALY   = 81.1197

EPHEMERIS_TYPE = 0
CLASSIFICATION_TYPE = U
NORAD_CAT_ID   = 67585
ELEMENT_SET_NO = 999
REV_AT_EPOCH   = 572
BSTAR          = .1033025E-2
MEAN_MOTION_DOT = .156367E-2
MEAN_MOTION_DDOT = 0

CCSDS_OMM_VERS = 2.0
CREATION_DATE  = 
ORIGINATOR     = 

OBJECT_NAME    = NAVSTAR 85 (USA 581)
OBJECT_ID      = 2026-017A
CENTER_NAME    = EARTH
REF_FRAME      = TEME
TIME_SYSTEM    = UTC
MEAN_ELEMENT_THEORY = SGP/SGP4

EPOCH          = 2026-02-23T00:34:14.193696
MEAN_MOTION    = 2.00560997
ECCENTRICITY   = .00011415
INCLINATION    = 55.0119
RA_OF_ASC_NODE = 93.3358
ARG_OF_PERICENTER = 31.5498
MEAN_ANOMALY   = 328.5234

EPHEMERIS_TYPE = 0
CLASSIFICATION_TYPE = U
NORAD_CAT_ID   = 67588
ELEMENT_SET_NO = 999
REV_AT_EPOCH   = 42932
BSTAR          = 0
MEAN_MOTION_DOT = .1E-7
MEAN_MOTION_DDOT = 0

CCSDS_OMM_VERS = 2.0
CREATION_DATE  = 
ORIGINATOR     = 

OBJECT_NAME    = STARLINK-36641
OBJECT_ID      = 2026-018A
CENTER_NAME    = EARTH
REF_FRAME      = TEME
TIME_SYSTEM    = UTC
MEAN_ELEMENT_THEORY = SGP/SGP4

EPOCH          = 2026-02-23T15:28:04.020672
MEAN_MOTION    = 15.75259814
ECCENTRICITY   = .0001506
INCLINATION    = 97.2840
RA_OF_ASC_NODE = 119.7115
ARG_OF_PERICENTER = 79.7537
MEAN_ANOMALY   = 280.3898

EPHEMERIS_TYPE = 0
CLASSIFICATION_TYPE = U
NORAD_CAT_ID   = 67589
ELEMENT_SET_NO = 999
REV_AT_EPOCH   = 509
BSTAR          = .20425E-2
MEAN_MOTION_DOT = .317071E-2
MEAN_MOTION_DDOT = 0

CCSDS_OMM_VERS = 2.0
CREATION_DATE  = 
ORIGINATOR     = 

OBJECT_NAME    = STARLINK-36376
OBJECT_ID      = 2026-018B
CENTER_NAME    = EARTH
REF_FRAME      = TEME
TIME_SYSTEM    = UTC
MEAN_ELEMENT_THEORY = SGP/SGP4

EPOCH          = 2026-02-23T10:27:41.896512
MEAN_MOTION    = 15.75265094
ECCENTRICITY   = .00022998
INCLINATION    = 97.2843
RA_OF_ASC_NODE = 119.5363
ARG_OF_PERICENTER = 100.6940
MEAN_ANOMALY   = 259.4584

EPHEMERIS_TYPE = 0
CLASSIFICATION_TYPE = U
NORAD_CAT_ID   = 67590
ELEMENT_SET_NO = 999
REV_AT_EPOCH   = 506
BSTAR          = .20747855E-2
MEAN_MOTION_DOT = .322358E-2
MEAN_MOTION_DDOT = 0

CCSDS_OMM_VERS = 2.0
CREATION_DATE  = 
ORIGINATOR     = 

OBJECT_NAME    = STARLINK-36391
OBJECT_ID      = 2026-018C
CENTER_NAME    = EARTH
REF_FRAME      = TEME
TIME_SYSTEM    = UTC
MEAN_ELEMENT_THEORY = SGP/SGP4

EPOCH          = 2026-02-23T03:52:47.341056
MEAN_MOTION    = 15.80872767
ECCENTRICITY   = .00007837
INCLINATION    = 97.2852
RA_OF_ASC_NODE = 119.2967
ARG_OF_PERICENTER = 43.5415
MEAN_ANOMALY   = 316.5915

EPHEMERIS_TYPE = 0
CLASSIFICATION_TYPE = U
NORAD_CAT_ID   = 67591
ELEMENT_SET_NO = 999
REV_AT_EPOCH   = 502
BSTAR          = .1020626E-2
MEAN_MOTION_DOT = .200432E-2
MEAN_MOTION_DDOT = 0

CCSDS_OMM_VERS = 2.0
CREATION_DATE  = 
ORIGINATOR     = 

OBJECT_NAME    = STARLINK-36603
OBJECT_ID      = 2026-018D
CENTER_NAME    = EARTH
REF_FRAME      = TEME
TIME_SYSTEM    = UTC
MEAN_ELEMENT_THEORY = SGP/SGP4

EPOCH          = 2026-02-23T10:21:35.957088
MEAN_MOTION    = 15.75266219
ECCENTRICITY   = .00023687
INCLINATION    = 97.2846
RA_OF_ASC_NODE = 119.5419
ARG_OF_PERICENTER = 117.1315
MEAN_ANOMALY   = 243.0192

EPHEMERIS_TYPE = 0
CLASSIFICATION_TYPE = U
NORAD_CAT_ID   = 67592
ELEMENT_SET_NO = 999
REV_AT_EPOCH   = 506
BSTAR          = .1973307E-2
MEAN_MOTION_DOT = .306009E-2
MEAN_MOTION_DDOT = 0

CCSDS_OMM_VERS = 2.0
CREATION_DATE  = 
ORIGINATOR     = 

OBJECT_NAME    = STARLINK-36634
OBJECT_ID      = 2026-018E
CENTER_NAME    = EARTH
REF_FRAME      = TEME
TIME_SYSTEM    = UTC
MEAN_ELEMENT_THEORY = SGP/SGP4

EPOCH          = 2026-02-23T20:00:01.999008
MEAN_MOTION    = 15.75270007
ECCENTRICITY   = .0001407
INCLINATION    = 97.2852
RA_OF_ASC_NODE = 119.9824
ARG_OF_PERICENTER = 76.4357
MEAN_ANOMALY   = 83.9586

EPHEMERIS_TYPE = 0
CLASSIFICATION_TYPE = U
NORAD_CAT_ID   = 67593
ELEMENT_SET_NO = 999
REV_AT_EPOCH   = 511
BSTAR          = -.12824E-2
MEAN_MOTION_DOT = -.187922E-2
MEAN_MOTION_DDOT = 0

CCSDS_OMM_VERS = 2.0
CREATION_DATE  = 
ORIGINATOR     = 

OBJECT_NAME    = STARLINK-36638
OBJECT_ID      = 2026-018F
CENTER_NAME    = EARTH
REF_FRAME      = TEME
TIME_SYSTEM    = UTC
MEAN_ELEMENT_THEORY = SGP/SGP4

EPOCH          = 2026-02-23T03:48:28.200672
MEAN_MOTION    = 15.81011888
ECCENTRICITY   = .00020597
INCLINATION    = 97.2840
RA_OF_ASC_NODE = 119.3010
ARG_OF_PERICENTER = 121.2493
MEAN_ANOMALY   = 238.8977

EPHEMERIS_TYPE = 0
CLASSIFICATION_TYPE = U
NORAD_CAT_ID   = 67594
ELEMENT_SET_NO = 999
REV_AT_EPOCH   = 502
BSTAR          = .23738965E-2
MEAN_MOTION_DOT = .485097E-2
MEAN_MOTION_DDOT = 0

CCSDS_OMM_VERS = 2.0
CREATION_DATE  = 
ORIGINATOR     = 

OBJECT_NAME    = STARLINK-36628
OBJECT_ID      = 2026-018G
CENTER_NAME    = EARTH
REF_FRAME      = TEME
TIME_SYSTEM    = UTC
MEAN_ELEMENT_THEORY = SGP/SGP4

EPOCH          = 2026-02-23T15:10:16.321440
MEAN_MOTION    = 15.75263684
ECCENTRICITY   = .0000692
INCLINATION    = 97.2838
RA_OF_ASC_NODE = 119.7277
ARG_OF_PERICENTER = 12.6481
MEAN_ANOMALY   = 347.4802

EPHEMERIS_TYPE = 0
CLASSIFICATION_TYPE = U
NORAD_CAT_ID   = 67595
ELEMENT_SET_NO = 999
REV_AT_EPOCH   = 509
BSTAR          = .26548E-2
MEAN_MOTION_DOT = .417191E-2
MEAN_MOTION_DDOT = 0

CCSDS_OMM_VERS = 2.0
CREATION_DATE  = 
ORIGINATOR     = 

OBJECT_NAME    = STARLINK-36629
OBJECT_ID      = 2026-018H
CENTER_NAME    = EARTH
REF_FRAME      = TEME
TIME_SYSTEM    = UTC
MEAN_ELEMENT_THEORY = SGP/SGP4

EPOCH          = 2026-02-23T10:47:00.765888
MEAN_MOTION    = 15.75231232
ECCENTRICITY   = .00025386
INCLINATION    = 97.2840
RA_OF_ASC_NODE = 119.5164
ARG_OF_PERICENTER = 118.0383
MEAN_ANOMALY   = 242.1140

EPHEMERIS_TYPE = 0
CLASSIFICATION_TYPE = U
NORAD_CAT_ID   = 67596
ELEMENT_SET_NO = 999
REV_AT_EPOCH   = 506
BSTAR          = .20806189E-2
MEAN_MOTION_DOT = .322813E-2
MEAN_MOTION_DDOT = 0

CCSDS_OMM_VERS = 2.0
CREATION_DATE  = 
ORIGINATOR     = 

OBJECT_NAME    = STARLINK-36384
OBJECT_ID      = 2026-018J
CENTER_NAME    = EARTH
REF_FRAME      = TEME
TIME_SYSTEM    = UTC
MEAN_ELEMENT_THEORY = SGP/SGP4

EPOCH          = 2026-02-23T20:00:01.999008
MEAN_MOTION    = 15.75278438
ECCENTRICITY   = .000165
INCLINATION    = 97.2860
RA_OF_ASC_NODE = 120.0176
ARG_OF_PERICENTER = 80.0549
MEAN_ANOMALY   = 162.3256

EPHEMERIS_TYPE = 0
CLASSIFICATION_TYPE = U
NORAD_CAT_ID   = 67597
ELEMENT_SET_NO = 999
REV_AT_EPOCH   = 517
BSTAR          = -.11055E-2
MEAN_MOTION_DOT = -.16256E-2
MEAN_MOTION_DDOT = 0

CCSDS_OMM_VERS = 2.0
CREATION_DATE  = 
ORIGINATOR     = 

OBJECT_NAME    = STARLINK-36358
OBJECT_ID      = 2026-018K
CENTER_NAME    = EARTH
REF_FRAME      = TEME
TIME_SYSTEM    = UTC
MEAN_ELEMENT_THEORY = SGP/SGP4

EPOCH          = 2026-02-23T03:00:57.887136
MEAN_MOTION    = 15.75356967
ECCENTRICITY   = .00021072
INCLINATION    = 97.2841
RA_OF_ASC_NODE = 119.1917
ARG_OF_PERICENTER = 124.8233
MEAN_ANOMALY   = 235.3230

EPHEMERIS_TYPE = 0
CLASSIFICATION_TYPE = U
NORAD_CAT_ID   = 67598
ELEMENT_SET_NO = 999
REV_AT_EPOCH   = 501
BSTAR          = .26358104E-2
MEAN_MOTION_DOT = .415763E-2
MEAN_MOTION_DDOT = 0

