STARLINK-36560          
1 67585U 26016AA  26054.58335648  .00156367  00000+0  10330-2 0  9991
2 67585  97.2843 114.4609 0001692  87.1277  81.1197 15.75124879  5721
NAVSTAR 85 (USA 581)    
1 67588U 26017A   26054.02377539  .00000001  00000+0  00000+0 0  9992
2 67588  55.0119  93.3358 0001141  31.5498 328.5234  2.00560997429320
STARLINK-36641          
1 67589U 26018A   26054.64449098  .00317071  00000+0  20425-2 0  9996
2 67589  97.2840 119.7115 0001506  79.7537 280.3898 15.75259814  5091
STARLINK-36376          
1 67590U 26018B   26054.43590158  .00322358  00000+0  20748-2 0  9991
2 67590  97.2843 119.5363 0002299 100.6940 259.4584 15.75265094  5064
STARLINK-36391          
1 67591U 26018C   26054.16165904  .00200432  00000+0  10206-2 0  9995
2 67591  97.2852 119.2967 0000783  43.5415 316.5915 15.80872767  5026
STARLINK-36603          
1 67592U 26018D   26054.43166617  .00306009  00000+0  19733-2 0  9999
2 67592  97.2846 119.5419 0002368 117.1315 243.0192 15.75266219  5061
STARLINK-36634          
1 67593U 26018E   26054.83335647 -.00187922  00000+0 -12824-2 0  9992
2 67593  97.2852 119.9824 0001407  76.4357  83.9586 15.75270007  5113
STARLINK-36638          
1 67594U 26018F   26054.15865973  .00485097  00000+0  23739-2 0  9997
2 67594  97.2840 119.3010 0002059 121.2493 238.8977 15.81011888  5028
STARLINK-36628          
1 67595U 26018G   26054.63213335  .00417191  00000+0  26548-2 0  9991
2 67595  97.2838 119.7277 0000692  12.6481 347.4802 15.75263684  5093
STARLINK-36629          
1 67596U 26018H   26054.44931442  .00322813  00000+0  20806-2 0  9994
2 67596  97.2840 119.5164 0002538 118.0383 242.1140 15.75231232  5060
STARLINK-36384          
1 67597U 26018J   26054.83335647 -.00162560  00000+0 -11055-2 0  9992
2 67597  97.2860 120.0176 0001650  80.0549 162.3256 15.75278438  5171
STARLINK-36358          
1 67598U 26018K   26054.12566999  .00415763  00000+0  26358-2 0  9997
2 67598  97.2841 119.1917 0002107 124.8233 235.3230 15.75356967  5018
